{"type": "FeatureCollection", "features": [ {"type": "Feature", "properties": {"norad_id": 33905, "name": "COSMOS 2251 DEB", "group": "cosmos-2251-debris", "lat": -33.1711504215329, "lon": -79.84436953509702, "alt_km": 814.5013746396353, "timestamp": "2025-12-26T13:39:19.372846+00:00", "meta": {"OBJECT_NAME": "COSMOS 2251 DEB", "OBJECT_ID": "1993-036DJ", "EPOCH": "2025-12-25T21:21:48.164256", "MEAN_MOTION": 14.35428413, "ECCENTRICITY": 0.0058089, "INCLINATION": 73.8868, "RA_OF_ASC_NODE": 292.3034, "ARG_OF_PERICENTER": 178.9773, "MEAN_ANOMALY": 239.5395, "EPHEMERIS_TYPE": 0, "CLASSIFICATION_TYPE": "U", "NORAD_CAT_ID": 33905, "ELEMENT_SET_NO": 999, "REV_AT_EPOCH": 87876, "BSTAR": 0.00053799, "MEAN_MOTION_DOT": 1.548e-05, "MEAN_MOTION_DDOT": 0}, "tle": {"line1": "1 33905U 93036DJ  25359.89014079  .00001548  00000+0  53799-3 0  9996", "line2": "2 33905  73.8868 292.3034 0058089 178.9773 239.5395 14.35428413878764"}}, "geometry": {"type": "Point", "coordinates": [-79.84436953509702, -33.1711504215329]}}, {"type": "Feature", "properties": {"norad_id": 33906, "name": "COSMOS 2251 DEB", "group": "cosmos-2251-debris", "lat": -31.83625856290433, "lon": 125.43371004220583, "alt_km": 716.213393987191, "timestamp": "2025-12-26T13:39:19.372857+00:00", "meta": {"OBJECT_NAME": "COSMOS 2251 DEB", "OBJECT_ID": "1993-036DK", "EPOCH": "2025-12-25T22:07:37.012224", "MEAN_MOTION": 14.57306917, "ECCENTRICITY": 0.0036915, "INCLINATION": 74.0302, "RA_OF_ASC_NODE": 296.4211, "ARG_OF_PERICENTER": 324.0836, "MEAN_ANOMALY": 96.415, "EPHEMERIS_TYPE": 0, "CLASSIFICATION_TYPE": "U", "NORAD_CAT_ID": 33906, "ELEMENT_SET_NO": 999, "REV_AT_EPOCH": 88200, "BSTAR": 0.0018801, "MEAN_MOTION_DOT": 8.57e-05, "MEAN_MOTION_DDOT": 0}, "tle": {"line1": "1 33906U 93036DK  25359.92195616  .00008570  00000+0  18801-2 0  9994", "line2": "2 33906  74.0302 296.4211 0036915 324.0836  96.4150 14.57306917882000"}}, "geometry": {"type": "Point", "coordinates": [125.43371004220583, -31.83625856290433]}}, {"type": "Feature", "properties": {"norad_id": 33907, "name": "COSMOS 2251 DEB", "group": "cosmos-2251-debris", "lat": -56.3057813306281, "lon": -16.829510458560364, "alt_km": 835.4399168600794, "timestamp": "2025-12-26T13:39:19.372867+00:00", "meta": {"OBJECT_NAME": "COSMOS 2251 DEB", "OBJECT_ID": "1993-036DL", "EPOCH": "2025-12-26T02:26:51.759744", "MEAN_MOTION": 14.3063031, "ECCENTRICITY": 0.01119506, "INCLINATION": 74.0705, "RA_OF_ASC_NODE": 9.38, "ARG_OF_PERICENTER": 60.8464, "MEAN_ANOMALY": 356.2762, "EPHEMERIS_TYPE": 0, "CLASSIFICATION_TYPE": "U", "NORAD_CAT_ID": 33907, "ELEMENT_SET_NO": 999, "REV_AT_EPOCH": 86771, "BSTAR": 0.0019061125, "MEAN_MOTION_DOT": 5.31e-05, "MEAN_MOTION_DDOT": 0}, "tle": {"line1": "1 33907U 93036DL  25360.10198796  .00005310  00000+0  19061-2 0  9997", "line2": "2 33907  74.0705   9.3800 0111950  60.8464 356.2762 14.30630310867713"}}, "geometry": {"type": "Point", "coordinates": [-16.829510458560364, -56.3057813306281]}}, {"type": "Feature", "properties": {"norad_id": 33908, "name": "COSMOS 2251 DEB", "group": "cosmos-2251-debris", "lat": -71.58915821561294, "lon": 61.82951671933196, "alt_km": 789.1374912423698, "timestamp": "2025-12-26T13:39:19.372878+00:00", "meta": {"OBJECT_NAME": "COSMOS 2251 DEB", "OBJECT_ID": "1993-036DM", "EPOCH": "2025-12-25T14:14:52.263744", "MEAN_MOTION": 14.07447206, "ECCENTRICITY": 0.0222244, "INCLINATION": 73.8371, "RA_OF_ASC_NODE": 182.9563, "ARG_OF_PERICENTER": 204.1101, "MEAN_ANOMALY": 154.9509, "EPHEMERIS_TYPE": 0, "CLASSIFICATION_TYPE": "U", "NORAD_CAT_ID": 33908, "ELEMENT_SET_NO": 999, "REV_AT_EPOCH": 85654, "BSTAR": 0.0026861, "MEAN_MOTION_DOT": 5.642e-05, "MEAN_MOTION_DDOT": 0}, "tle": {"line1": "1 33908U 93036DM  25359.59366046  .00005642  00000+0  26861-2 0  9998", "line2": "2 33908  73.8371 182.9563 0222244 204.1101 154.9509 14.07447206856549"}}, "geometry": {"type": "Point", "coordinates": [61.82951671933196, -71.58915821561294]}}, {"type": "Feature", "properties": {"norad_id": 33911, "name": "COSMOS 2251 DEB", "group": "cosmos-2251-debris", "lat": 27.387887844262583, "lon": -53.579648977409164, "alt_km": 642.271106012885, "timestamp": "2025-12-26T13:39:19.372889+00:00", "meta": {"OBJECT_NAME": "COSMOS 2251 DEB", "OBJECT_ID": "1993-036DQ", "EPOCH": "2025-12-26T03:27:21.077280", "MEAN_MOTION": 14.75198476, "ECCENTRICITY": 0.00140597, "INCLINATION": 74.0905, "RA_OF_ASC_NODE": 135.7458, "ARG_OF_PERICENTER": 66.6606, "MEAN_ANOMALY": 348.4887, "EPHEMERIS_TYPE": 0, "CLASSIFICATION_TYPE": "U", "NORAD_CAT_ID": 33911, "ELEMENT_SET_NO": 999, "REV_AT_EPOCH": 88842, "BSTAR": 0.0021579624, "MEAN_MOTION_DOT": 0.00014608, "MEAN_MOTION_DDOT": 0}, "tle": {"line1": "1 33911U 93036DQ  25360.14399395  .00014608  00000+0  21580-2 0  9993", "line2": "2 33911  74.0905 135.7458 0014059  66.6606 348.4887 14.75198476888420"}}, "geometry": {"type": "Point", "coordinates": [-53.579648977409164, 27.387887844262583]}}, {"type": "Feature", "properties": {"norad_id": 33912, "name": "COSMOS 2251 DEB", "group": "cosmos-2251-debris", "lat": -29.064647505226507, "lon": 154.51721769069832, "alt_km": 724.3150225517356, "timestamp": "2025-12-26T13:39:19.372899+00:00", "meta": {"OBJECT_NAME": "COSMOS 2251 DEB", "OBJECT_ID": "1993-036DR", "EPOCH": "2025-12-25T11:28:32.599776", "MEAN_MOTION": 14.51967051, "ECCENTRICITY": 0.0011296, "INCLINATION": 74.033, "RA_OF_ASC_NODE": 165.7278, "ARG_OF_PERICENTER": 245.0608, "MEAN_ANOMALY": 145.0748, "EPHEMERIS_TYPE": 0, "CLASSIFICATION_TYPE": "U", "NORAD_CAT_ID": 33912, "ELEMENT_SET_NO": 999, "REV_AT_EPOCH": 88618, "BSTAR": 0.00082992, "MEAN_MOTION_DOT": 3.327e-05, "MEAN_MOTION_DDOT": 0}, "tle": {"line1": "1 33912U 93036DR  25359.47815509  .00003327  00000+0  82992-3 0  9999", "line2": "2 33912  74.0330 165.7278 0011296 245.0608 145.0748 14.51967051886186"}}, "geometry": {"type": "Point", "coordinates": [154.51721769069832, -29.064647505226507]}}, {"type": "Feature", "properties": {"norad_id": 33913, "name": "COSMOS 2251 DEB", "group": "cosmos-2251-debris", "lat": -60.74548486482099, "lon": 8.474486968075883, "alt_km": 703.7785784315674, "timestamp": "2025-12-26T13:39:19.372910+00:00", "meta": {"OBJECT_NAME": "COSMOS 2251 DEB", "OBJECT_ID": "1993-036DS", "EPOCH": "2025-12-25T20:30:08.870112", "MEAN_MOTION": 14.48539545, "ECCENTRICITY": 0.0048173, "INCLINATION": 74.0332, "RA_OF_ASC_NODE": 159.0733, "ARG_OF_PERICENTER": 259.2078, "MEAN_ANOMALY": 220.5321, "EPHEMERIS_TYPE": 0, "CLASSIFICATION_TYPE": "U", "NORAD_CAT_ID": 33913, "ELEMENT_SET_NO": 999, "REV_AT_EPOCH": 88647, "BSTAR": 0.00064836417, "MEAN_MOTION_DOT": 2.443e-05, "MEAN_MOTION_DDOT": 0}, "tle": {"line1": "1 33913U 93036DS  25359.85426933  .00002443  00000+0  64836-3 0  9996", "line2": "2 33913  74.0332 159.0733 0048173 259.2078 220.5321 14.48539545886470"}}, "geometry": {"type": "Point", "coordinates": [8.474486968075883, -60.74548486482099]}}, {"type": "Feature", "properties": {"norad_id": 33914, "name": "COSMOS 2251 DEB", "group": "cosmos-2251-debris", "lat": 1.515243088842584, "lon": -7.2637790842024295, "alt_km": 989.2947921076657, "timestamp": "2025-12-26T13:39:19.372926+00:00", "meta": {"OBJECT_NAME": "COSMOS 2251 DEB", "OBJECT_ID": "1993-036DT", "EPOCH": "2025-12-26T03:29:35.982240", "MEAN_MOTION": 13.71992842, "ECCENTRICITY": 0.03007747, "INCLINATION": 74.0912, "RA_OF_ASC_NODE": 353.0015, "ARG_OF_PERICENTER": 92.7934, "MEAN_ANOMALY": 341.7967, "EPHEMERIS_TYPE": 0, "CLASSIFICATION_TYPE": "U", "NORAD_CAT_ID": 33914, "ELEMENT_SET_NO": 999, "REV_AT_EPOCH": 84265, "BSTAR": 0.00027030331, "MEAN_MOTION_DOT": 3.19e-06, "MEAN_MOTION_DDOT": 0}, "tle": {"line1": "1 33914U 93036DT  25360.14555535  .00000319  00000+0  27030-3 0  9997", "line2": "2 33914  74.0912 353.0015 0300774  92.7934 341.7967 13.71992842842655"}}, "geometry": {"type": "Point", "coordinates": [-7.2637790842024295, 1.515243088842584]}}, {"type": "Feature", "properties": {"norad_id": 33915, "name": "COSMOS 2251 DEB", "group": "cosmos-2251-debris", "lat": 23.56674555521131, "lon": 15.931227712518133, "alt_km": 751.262642872045, "timestamp": "2025-12-26T13:39:19.372938+00:00", "meta": {"OBJECT_NAME": "COSMOS 2251 DEB", "OBJECT_ID": "1993-036DU", "EPOCH": "2025-12-26T02:05:41.135424", "MEAN_MOTION": 14.35111094, "ECCENTRICITY": 0.01039884, "INCLINATION": 74.0429, "RA_OF_ASC_NODE": 9.6442, "ARG_OF_PERICENTER": 98.5899, "MEAN_ANOMALY": 319.6041, "EPHEMERIS_TYPE": 0, "CLASSIFICATION_TYPE": "U", "NORAD_CAT_ID": 33915, "ELEMENT_SET_NO": 999, "REV_AT_EPOCH": 87949, "BSTAR": 0.0003368011, "MEAN_MOTION_DOT": 9.96e-06, "MEAN_MOTION_DDOT": 0}, "tle": {"line1": "1 33915U 93036DU  25360.08728166  .00000996  00000+0  33680-3 0  9992", "line2": "2 33915  74.0429   9.6442 0103988  98.5899 319.6041 14.35111094879491"}}, "geometry": {"type": "Point", "coordinates": [15.931227712518133, 23.56674555521131]}}, {"type": "Feature", "properties": {"norad_id": 33916, "name": "COSMOS 2251 DEB", "group": "cosmos-2251-debris", "lat": 71.31514271854343, "lon": 140.13855885195358, "alt_km": 977.8263916478636, "timestamp": "2025-12-26T13:39:19.372948+00:00", "meta": {"OBJECT_NAME": "COSMOS 2251 DEB", "OBJECT_ID": "1993-036DV", "EPOCH": "2025-12-26T07:56:49.587936", "MEAN_MOTION": 13.68627006, "ECCENTRICITY": 0.03247129, "INCLINATION": 74.0518, "RA_OF_ASC_NODE": 18.256, "ARG_OF_PERICENTER": 187.4797, "MEAN_ANOMALY": 184.633, "EPHEMERIS_TYPE": 0, "CLASSIFICATION_TYPE": "U", "NORAD_CAT_ID": 33916, "ELEMENT_SET_NO": 999, "REV_AT_EPOCH": 84077, "BSTAR": 0.00030142191, "MEAN_MOTION_DOT": 3.52e-06, "MEAN_MOTION_DDOT": 0}, "tle": {"line1": "1 33916U 93036DV  25360.33112949  .00000352  00000+0  30142-3 0  9993", "line2": "2 33916  74.0518  18.2560 0324712 187.4797 184.6330 13.68627006840773"}}, "geometry": {"type": "Point", "coordinates": [140.13855885195358, 71.31514271854343]}}]}